[{"OBJECT_NAME":"STARLINK-2266","OBJECT_ID":"2021-024W","EPOCH":"2026-03-09T22:41:07.759680","MEAN_MOTION":15.30173039,"ECCENTRICITY":9.263e-5,"INCLINATION":53.157,"RA_OF_ASC_NODE":305.5637,"ARG_OF_PERICENTER":78.9205,"MEAN_ANOMALY":281.19,"EPHEMERIS_TYPE":0,"CLASSIFICATION_TYPE":"U","NORAD_CAT_ID":47997,"ELEMENT_SET_NO":999,"REV_AT_EPOCH":27502,"BSTAR":-0.00021735375,"MEAN_MOTION_DOT":-6.785e-5,"MEAN_MOTION_DDOT":0},{"OBJECT_NAME":"GEOSCAN 3 (RS92S3)","OBJECT_ID":"2025-155T","EPOCH":"2026-03-09T22:52:10.587648","MEAN_MOTION":15.31696739,"ECCENTRICITY":0.00068078,"INCLINATION":97.4455,"RA_OF_ASC_NODE":37.9971,"ARG_OF_PERICENTER":154.1387,"MEAN_ANOMALY":206.0196,"EPHEMERIS_TYPE":0,"CLASSIFICATION_TYPE":"U","NORAD_CAT_ID":64893,"ELEMENT_SET_NO":999,"REV_AT_EPOCH":6564,"BSTAR":0.00078414081,"MEAN_MOTION_DOT":0.00023985,"MEAN_MOTION_DDOT":0}]
